<?xml version="1.0" encoding="UTF-8"?>
<gpx version="1.1" creator="RailAngyer" xmlns="http://www.topografix.com/GPX/1/1">
  <wpt lat="43.114700" lon="141.340600"><name>麻生</name><time>2026-07-26T10:00:00Z</time></wpt>
  <wpt lat="43.114017" lon="141.340783"><time>2026-07-26T10:00:06Z</time></wpt>
  <wpt lat="43.113333" lon="141.340967"><time>2026-07-26T10:00:12Z</time></wpt>
  <wpt lat="43.112650" lon="141.341150"><time>2026-07-26T10:00:18Z</time></wpt>
  <wpt lat="43.111967" lon="141.341333"><time>2026-07-26T10:00:24Z</time></wpt>
  <wpt lat="43.111283" lon="141.341517"><time>2026-07-26T10:00:30Z</time></wpt>
  <wpt lat="43.110600" lon="141.341700"><time>2026-07-26T10:00:36Z</time></wpt>
  <wpt lat="43.109917" lon="141.341883"><time>2026-07-26T10:00:42Z</time></wpt>
  <wpt lat="43.109233" lon="141.342067"><time>2026-07-26T10:00:48Z</time></wpt>
  <wpt lat="43.108550" lon="141.342250"><time>2026-07-26T10:00:54Z</time></wpt>
  <wpt lat="43.107867" lon="141.342433"><time>2026-07-26T10:01:00Z</time></wpt>
  <wpt lat="43.107183" lon="141.342617"><time>2026-07-26T10:01:06Z</time></wpt>
  <wpt lat="43.106500" lon="141.342800"><name>北34条</name><time>2026-07-26T10:01:12Z</time></wpt>
  <wpt lat="43.105833" lon="141.342933"><time>2026-07-26T10:01:18Z</time></wpt>
  <wpt lat="43.105167" lon="141.343067"><time>2026-07-26T10:01:24Z</time></wpt>
  <wpt lat="43.104500" lon="141.343200"><time>2026-07-26T10:01:30Z</time></wpt>
  <wpt lat="43.103833" lon="141.343333"><time>2026-07-26T10:01:36Z</time></wpt>
  <wpt lat="43.103167" lon="141.343467"><time>2026-07-26T10:01:42Z</time></wpt>
  <wpt lat="43.102500" lon="141.343600"><time>2026-07-26T10:01:48Z</time></wpt>
  <wpt lat="43.101833" lon="141.343733"><time>2026-07-26T10:01:54Z</time></wpt>
  <wpt lat="43.101167" lon="141.343867"><time>2026-07-26T10:02:00Z</time></wpt>
  <wpt lat="43.100500" lon="141.344000"><time>2026-07-26T10:02:06Z</time></wpt>
  <wpt lat="43.099833" lon="141.344133"><time>2026-07-26T10:02:12Z</time></wpt>
  <wpt lat="43.099167" lon="141.344267"><time>2026-07-26T10:02:18Z</time></wpt>
  <wpt lat="43.098500" lon="141.344400"><name>北24条</name><time>2026-07-26T10:02:24Z</time></wpt>
</gpx>
