<?xml version="1.0" encoding="UTF-8"?>
<gpx version="1.1" creator="RailAngyer" xmlns="http://www.topografix.com/GPX/1/1">
  <wpt lat="43.068200" lon="141.350500"><name>さっぽろ</name><time>2026-07-26T10:00:00Z</time></wpt>
  <wpt lat="43.066720" lon="141.350520"><time>2026-07-26T10:00:04Z</time></wpt>
  <wpt lat="43.065240" lon="141.350540"><time>2026-07-26T10:00:08Z</time></wpt>
  <wpt lat="43.063760" lon="141.350560"><time>2026-07-26T10:00:12Z</time></wpt>
  <wpt lat="43.062280" lon="141.350580"><time>2026-07-26T10:00:16Z</time></wpt>
  <wpt lat="43.060800" lon="141.350600"><name>大通</name><time>2026-07-26T10:00:20Z</time></wpt>
  <wpt lat="43.059700" lon="141.351180"><time>2026-07-26T10:00:24Z</time></wpt>
  <wpt lat="43.058600" lon="141.351760"><time>2026-07-26T10:00:28Z</time></wpt>
  <wpt lat="43.057500" lon="141.352340"><time>2026-07-26T10:00:32Z</time></wpt>
  <wpt lat="43.056400" lon="141.352920"><time>2026-07-26T10:00:36Z</time></wpt>
  <wpt lat="43.055300" lon="141.353500"><name>すすきの</name><time>2026-07-26T10:00:40Z</time></wpt>
  <wpt lat="43.054080" lon="141.353720"><time>2026-07-26T10:00:44Z</time></wpt>
  <wpt lat="43.052860" lon="141.353940"><time>2026-07-26T10:00:48Z</time></wpt>
  <wpt lat="43.051640" lon="141.354160"><time>2026-07-26T10:00:52Z</time></wpt>
  <wpt lat="43.050420" lon="141.354380"><time>2026-07-26T10:00:56Z</time></wpt>
  <wpt lat="43.049200" lon="141.354600"><name>中島公園</name><time>2026-07-26T10:01:00Z</time></wpt>
  <wpt lat="43.047560" lon="141.354760"><time>2026-07-26T10:01:04Z</time></wpt>
  <wpt lat="43.045920" lon="141.354920"><time>2026-07-26T10:01:08Z</time></wpt>
  <wpt lat="43.044280" lon="141.355080"><time>2026-07-26T10:01:12Z</time></wpt>
  <wpt lat="43.042640" lon="141.355240"><time>2026-07-26T10:01:16Z</time></wpt>
  <wpt lat="43.041000" lon="141.355400"><name>幌平橋</name><time>2026-07-26T10:01:20Z</time></wpt>
  <wpt lat="43.039700" lon="141.355560"><time>2026-07-26T10:01:24Z</time></wpt>
  <wpt lat="43.038400" lon="141.355720"><time>2026-07-26T10:01:28Z</time></wpt>
  <wpt lat="43.037100" lon="141.355880"><time>2026-07-26T10:01:32Z</time></wpt>
  <wpt lat="43.035800" lon="141.356040"><time>2026-07-26T10:01:36Z</time></wpt>
  <wpt lat="43.034500" lon="141.356200"><name>中の島</name><time>2026-07-26T10:01:40Z</time></wpt>
</gpx>
