<?xml version="1.0" encoding="UTF-8"?>
<gpx version="1.1" creator="RailAngyer" xmlns="http://www.topografix.com/GPX/1/1">
  <wpt lat="43.114700" lon="141.340600"><name>麻生</name><time>2026-07-26T10:00:00Z</time></wpt>
  <wpt lat="43.113060" lon="141.341040"><time>2026-07-26T10:00:04Z</time></wpt>
  <wpt lat="43.111420" lon="141.341480"><time>2026-07-26T10:00:08Z</time></wpt>
  <wpt lat="43.109780" lon="141.341920"><time>2026-07-26T10:00:12Z</time></wpt>
  <wpt lat="43.108140" lon="141.342360"><time>2026-07-26T10:00:16Z</time></wpt>
  <wpt lat="43.106500" lon="141.342800"><name>北34条</name><time>2026-07-26T10:00:20Z</time></wpt>
  <wpt lat="43.104900" lon="141.343120"><time>2026-07-26T10:00:24Z</time></wpt>
  <wpt lat="43.103300" lon="141.343440"><time>2026-07-26T10:00:28Z</time></wpt>
  <wpt lat="43.101700" lon="141.343760"><time>2026-07-26T10:00:32Z</time></wpt>
  <wpt lat="43.100100" lon="141.344080"><time>2026-07-26T10:00:36Z</time></wpt>
  <wpt lat="43.098500" lon="141.344400"><name>北24条</name><time>2026-07-26T10:00:40Z</time></wpt>
  <wpt lat="43.096900" lon="141.344620"><time>2026-07-26T10:00:44Z</time></wpt>
  <wpt lat="43.095300" lon="141.344840"><time>2026-07-26T10:00:48Z</time></wpt>
  <wpt lat="43.093700" lon="141.345060"><time>2026-07-26T10:00:52Z</time></wpt>
  <wpt lat="43.092100" lon="141.345280"><time>2026-07-26T10:00:56Z</time></wpt>
  <wpt lat="43.090500" lon="141.345500"><name>北18条</name><time>2026-07-26T10:01:00Z</time></wpt>
  <wpt lat="43.088400" lon="141.345720"><time>2026-07-26T10:01:04Z</time></wpt>
  <wpt lat="43.086300" lon="141.345940"><time>2026-07-26T10:01:08Z</time></wpt>
  <wpt lat="43.084200" lon="141.346160"><time>2026-07-26T10:01:12Z</time></wpt>
  <wpt lat="43.082100" lon="141.346380"><time>2026-07-26T10:01:16Z</time></wpt>
  <wpt lat="43.080000" lon="141.346600"><name>北12条</name><time>2026-07-26T10:01:20Z</time></wpt>
  <wpt lat="43.077640" lon="141.347380"><time>2026-07-26T10:01:24Z</time></wpt>
  <wpt lat="43.075280" lon="141.348160"><time>2026-07-26T10:01:28Z</time></wpt>
  <wpt lat="43.072920" lon="141.348940"><time>2026-07-26T10:01:32Z</time></wpt>
  <wpt lat="43.070560" lon="141.349720"><time>2026-07-26T10:01:36Z</time></wpt>
  <wpt lat="43.068200" lon="141.350500"><name>さっぽろ</name><time>2026-07-26T10:01:40Z</time></wpt>
  <wpt lat="43.066720" lon="141.350520"><time>2026-07-26T10:01:44Z</time></wpt>
  <wpt lat="43.065240" lon="141.350540"><time>2026-07-26T10:01:48Z</time></wpt>
  <wpt lat="43.063760" lon="141.350560"><time>2026-07-26T10:01:52Z</time></wpt>
  <wpt lat="43.062280" lon="141.350580"><time>2026-07-26T10:01:56Z</time></wpt>
  <wpt lat="43.060800" lon="141.350600"><name>大通</name><time>2026-07-26T10:02:00Z</time></wpt>
  <wpt lat="43.059700" lon="141.351180"><time>2026-07-26T10:02:04Z</time></wpt>
  <wpt lat="43.058600" lon="141.351760"><time>2026-07-26T10:02:08Z</time></wpt>
  <wpt lat="43.057500" lon="141.352340"><time>2026-07-26T10:02:12Z</time></wpt>
  <wpt lat="43.056400" lon="141.352920"><time>2026-07-26T10:02:16Z</time></wpt>
  <wpt lat="43.055300" lon="141.353500"><name>すすきの</name><time>2026-07-26T10:02:20Z</time></wpt>
  <wpt lat="43.054080" lon="141.353720"><time>2026-07-26T10:02:24Z</time></wpt>
  <wpt lat="43.052860" lon="141.353940"><time>2026-07-26T10:02:28Z</time></wpt>
  <wpt lat="43.051640" lon="141.354160"><time>2026-07-26T10:02:32Z</time></wpt>
  <wpt lat="43.050420" lon="141.354380"><time>2026-07-26T10:02:36Z</time></wpt>
  <wpt lat="43.049200" lon="141.354600"><name>中島公園</name><time>2026-07-26T10:02:40Z</time></wpt>
  <wpt lat="43.047560" lon="141.354760"><time>2026-07-26T10:02:44Z</time></wpt>
  <wpt lat="43.045920" lon="141.354920"><time>2026-07-26T10:02:48Z</time></wpt>
  <wpt lat="43.044280" lon="141.355080"><time>2026-07-26T10:02:52Z</time></wpt>
  <wpt lat="43.042640" lon="141.355240"><time>2026-07-26T10:02:56Z</time></wpt>
  <wpt lat="43.041000" lon="141.355400"><name>幌平橋</name><time>2026-07-26T10:03:00Z</time></wpt>
  <wpt lat="43.039700" lon="141.355560"><time>2026-07-26T10:03:04Z</time></wpt>
  <wpt lat="43.038400" lon="141.355720"><time>2026-07-26T10:03:08Z</time></wpt>
  <wpt lat="43.037100" lon="141.355880"><time>2026-07-26T10:03:12Z</time></wpt>
  <wpt lat="43.035800" lon="141.356040"><time>2026-07-26T10:03:16Z</time></wpt>
  <wpt lat="43.034500" lon="141.356200"><name>中の島</name><time>2026-07-26T10:03:20Z</time></wpt>
  <wpt lat="43.033040" lon="141.356480"><time>2026-07-26T10:03:24Z</time></wpt>
  <wpt lat="43.031580" lon="141.356760"><time>2026-07-26T10:03:28Z</time></wpt>
  <wpt lat="43.030120" lon="141.357040"><time>2026-07-26T10:03:32Z</time></wpt>
  <wpt lat="43.028660" lon="141.357320"><time>2026-07-26T10:03:36Z</time></wpt>
  <wpt lat="43.027200" lon="141.357600"><name>平岸</name><time>2026-07-26T10:03:40Z</time></wpt>
  <wpt lat="43.025700" lon="141.358280"><time>2026-07-26T10:03:44Z</time></wpt>
  <wpt lat="43.024200" lon="141.358960"><time>2026-07-26T10:03:48Z</time></wpt>
  <wpt lat="43.022700" lon="141.359640"><time>2026-07-26T10:03:52Z</time></wpt>
  <wpt lat="43.021200" lon="141.360320"><time>2026-07-26T10:03:56Z</time></wpt>
  <wpt lat="43.019700" lon="141.361000"><name>南平岸</name><time>2026-07-26T10:04:00Z</time></wpt>
  <wpt lat="43.017960" lon="141.361160"><time>2026-07-26T10:04:04Z</time></wpt>
  <wpt lat="43.016220" lon="141.361320"><time>2026-07-26T10:04:08Z</time></wpt>
  <wpt lat="43.014480" lon="141.361480"><time>2026-07-26T10:04:12Z</time></wpt>
  <wpt lat="43.012740" lon="141.361640"><time>2026-07-26T10:04:16Z</time></wpt>
  <wpt lat="43.011000" lon="141.361800"><name>澄川</name><time>2026-07-26T10:04:20Z</time></wpt>
  <wpt lat="43.009160" lon="141.361840"><time>2026-07-26T10:04:24Z</time></wpt>
  <wpt lat="43.007320" lon="141.361880"><time>2026-07-26T10:04:28Z</time></wpt>
  <wpt lat="43.005480" lon="141.361920"><time>2026-07-26T10:04:32Z</time></wpt>
  <wpt lat="43.003640" lon="141.361960"><time>2026-07-26T10:04:36Z</time></wpt>
  <wpt lat="43.001800" lon="141.362000"><name>自衛隊前</name><time>2026-07-26T10:04:40Z</time></wpt>
  <wpt lat="42.999740" lon="141.360400"><time>2026-07-26T10:04:44Z</time></wpt>
  <wpt lat="42.997680" lon="141.358800"><time>2026-07-26T10:04:48Z</time></wpt>
  <wpt lat="42.995620" lon="141.357200"><time>2026-07-26T10:04:52Z</time></wpt>
  <wpt lat="42.993560" lon="141.355600"><time>2026-07-26T10:04:56Z</time></wpt>
  <wpt lat="42.991500" lon="141.354000"><name>真駒内</name><time>2026-07-26T10:05:00Z</time></wpt>
</gpx>
